start=new Date('2022-09-15T00:00:00.000Z').valueOf();
sats=[{"EPHEMERIS_TYPE":"0","COUNTRY_CODE":"US","CLASSIFICATION_TYPE":"U","EPOCH":"2022-09-14T22:00:00.999936","FILE":"3574287","MEAN_ELEMENT_THEORY":"SGP4","RCS_SIZE":"LARGE","REF_FRAME":"TEME","DECAY_DATE":null,"RA_OF_ASC_NODE":"298.3224","REV_AT_EPOCH":"130","ARG_OF_PERICENTER":"51.2260","ELEMENT_SET_NO":"999","OBJECT_NAME":"STARLINK-3592","MEAN_MOTION_DDOT":"0.0000000000000","MEAN_MOTION_DOT":"-0.00008594","BSTAR":"-0.00052269000000","GP_ID":"212613198","PERIAPSIS":"538.744","TLE_LINE1":"1 51801U 22017AK  22257.91667824 -.00008594  00000-0 -52269-3 0  9993","SITE":"AFWTR","ECCENTRICITY":"0.00014970","INCLINATION":"53.2161","APOAPSIS":"540.815","CENTER_NAME":"EARTH","MEAN_MOTION":"15.08828879","PERIOD":"95.438","MEAN_ANOMALY":"165.7395","NORAD_CAT_ID":"51801","LAUNCH_DATE":"2022-02-25","OBJECT_TYPE":"PAYLOAD","TIME_SYSTEM":"UTC","TLE_LINE2":"2 51801  53.2161 298.3224 0001497  51.2260 165.7395 15.08828879  1308","OBJECT_ID":"2022-017AK","SEMIMAJOR_AXIS":"6917.914"},{"OBJECT_ID":"2022-017AL","SEMIMAJOR_AXIS":"6917.953","TIME_SYSTEM":"UTC","TLE_LINE2":"2 51802  53.2144 298.3456 0001471  57.1448  54.6382 15.08816289  1306","APOAPSIS":"540.835","CENTER_NAME":"EARTH","PERIOD":"95.439","MEAN_MOTION":"15.08816289","LAUNCH_DATE":"2022-02-25","NORAD_CAT_ID":"51802","OBJECT_TYPE":"PAYLOAD","MEAN_ANOMALY":"54.6382","BSTAR":"0.00060541000000","MEAN_MOTION_DOT":"0.00009354","PERIAPSIS":"538.800","GP_ID":"212613949","MEAN_MOTION_DDOT":"0.0000000000000","INCLINATION":"53.2144","SITE":"AFWTR","TLE_LINE1":"1 51802U 22017AL  22257.91667824  .00009354  00000-0  60541-3 0  9999","ECCENTRICITY":"0.00014710","FILE":"3574287","MEAN_ELEMENT_THEORY":"SGP4","EPOCH":"2022-09-14T22:00:00.999936","DECAY_DATE":null,"REF_FRAME":"TEME","RCS_SIZE":"LARGE","COUNTRY_CODE":"US","EPHEMERIS_TYPE":"0","CLASSIFICATION_TYPE":"U","ELEMENT_SET_NO":"999","OBJECT_NAME":"STARLINK-3557","ARG_OF_PERICENTER":"57.1448","REV_AT_EPOCH":"130","RA_OF_ASC_NODE":"298.3456"},{"APOAPSIS":"540.987","CENTER_NAME":"EARTH","PERIOD":"95.439","MEAN_MOTION":"15.08820975","MEAN_ANOMALY":"227.8389","LAUNCH_DATE":"2022-02-25","NORAD_CAT_ID":"51803","OBJECT_TYPE":"PAYLOAD","TLE_LINE2":"2 51803  53.2160 298.3270 0001710  49.1407 227.8389 15.08820975  1309","TIME_SYSTEM":"UTC","OBJECT_ID":"2022-017AM","SEMIMAJOR_AXIS":"6917.939","COUNTRY_CODE":"US","EPHEMERIS_TYPE":"0","CLASSIFICATION_TYPE":"U","MEAN_ELEMENT_THEORY":"SGP4","FILE":"3574287","EPOCH":"2022-09-14T22:00:00.999936","DECAY_DATE":null,"REF_FRAME":"TEME","RCS_SIZE":"LARGE","ARG_OF_PERICENTER":"49.1407","RA_OF_ASC_NODE":"298.3270","REV_AT_EPOCH":"130","ELEMENT_SET_NO":"999","OBJECT_NAME":"STARLINK-3544","MEAN_MOTION_DDOT":"0.0000000000000","BSTAR":"0.00045128000000","MEAN_MOTION_DOT":"0.00006898","GP_ID":"212614191","PERIAPSIS":"538.621","SITE":"AFWTR","TLE_LINE1":"1 51803U 22017AM  22257.91667824  .00006898  00000-0  45128-3 0  9994","ECCENTRICITY":"0.00017100","INCLINATION":"53.2160"},{"OBJECT_TYPE":"PAYLOAD","NORAD_CAT_ID":"51804","LAUNCH_DATE":"2022-02-25","MEAN_ANOMALY":"136.2410","MEAN_MOTION":"15.08803974","PERIOD":"95.440","CENTER_NAME":"EARTH","APOAPSIS":"540.818","SEMIMAJOR_AXIS":"6917.991","OBJECT_ID":"2022-017AN","TLE_LINE2":"2 51804  53.2173 278.3269 0001391  70.7429 136.2410 15.08803974  1307","TIME_SYSTEM":"UTC","OBJECT_NAME":"STARLINK-3601","ELEMENT_SET_NO":"999","REV_AT_EPOCH":"130","RA_OF_ASC_NODE":"278.3269","ARG_OF_PERICENTER":"70.7429","RCS_SIZE":"LARGE","REF_FRAME":"TEME","DECAY_DATE":null,"EPOCH":"2022-09-14T22:00:00.999936","FILE":"3574287","MEAN_ELEMENT_THEORY":"SGP4","CLASSIFICATION_TYPE":"U","COUNTRY_CODE":"US","EPHEMERIS_TYPE":"0","INCLINATION":"53.2173","ECCENTRICITY":"0.00013910","TLE_LINE1":"1 51804U 22017AN  22257.91667824  .00045323  00000-0  28504-2 0  9999","SITE":"AFWTR","GP_ID":"212612951","PERIAPSIS":"538.893","MEAN_MOTION_DOT":"0.00045323","BSTAR":"0.00285040000000","MEAN_MOTION_DDOT":"0.0000000000000"},{"COUNTRY_CODE":"US","EPHEMERIS_TYPE":"0","CLASSIFICATION_TYPE":"U","EPOCH":"2022-09-14T22:00:00.999936","FILE":"3574287","MEAN_ELEMENT_THEORY":"SGP4","RCS_SIZE":"LARGE","DECAY_DATE":null,"REF_FRAME":"TEME","RA_OF_ASC_NODE":"278.3258","REV_AT_EPOCH":"130","ARG_OF_PERICENTER":"44.2707","ELEMENT_SET_NO":"999","OBJECT_NAME":"STARLINK-3605","MEAN_MOTION_DDOT":"0.0000000000000","MEAN_MOTION_DOT":"0.00045716","BSTAR":"0.00287450000000","PERIAPSIS":"538.582","GP_ID":"212613698","TLE_LINE1":"1 51805U 22017AP  22257.91667824  .00045716  00000-0  28745-2 0  9993","SITE":"AFWTR","ECCENTRICITY":"0.00018270","INCLINATION":"53.2154","APOAPSIS":"541.110","CENTER_NAME":"EARTH","MEAN_MOTION":"15.08807127","PERIOD":"95.440","MEAN_ANOMALY":"182.6800","NORAD_CAT_ID":"51805","LAUNCH_DATE":"2022-02-25","OBJECT_TYPE":"PAYLOAD","TLE_LINE2":"2 51805  53.2154 278.3258 0001827  44.2707 182.6800 15.08807127  1306","TIME_SYSTEM":"UTC","SEMIMAJOR_AXIS":"6917.981","OBJECT_ID":"2022-017AP"},{"PERIAPSIS":"538.577","GP_ID":"212614449","BSTAR":"0.00256660000000","MEAN_MOTION_DOT":"0.00040772","MEAN_MOTION_DDOT":"0.0000000000000","INCLINATION":"53.2153","ECCENTRICITY":"0.00017860","SITE":"AFWTR","TLE_LINE1":"1 51806U 22017AQ  22257.91667824  .00040772  00000-0  25666-2 0  9990","REF_FRAME":"TEME","DECAY_DATE":null,"RCS_SIZE":"LARGE","FILE":"3574287","MEAN_ELEMENT_THEORY":"SGP4","EPOCH":"2022-09-14T22:00:00.999936","CLASSIFICATION_TYPE":"U","COUNTRY_CODE":"US","EPHEMERIS_TYPE":"0","OBJECT_NAME":"STARLINK-3581","ELEMENT_SET_NO":"999","REV_AT_EPOCH":"130","RA_OF_ASC_NODE":"288.3437","ARG_OF_PERICENTER":"49.9374","SEMIMAJOR_AXIS":"6917.947","OBJECT_ID":"2022-017AQ","TLE_LINE2":"2 51806  53.2153 288.3437 0001786  49.9374 102.0197 15.08818168  1304","TIME_SYSTEM":"UTC","PERIOD":"95.439","MEAN_MOTION":"15.08818168","APOAPSIS":"541.048","CENTER_NAME":"EARTH","OBJECT_TYPE":"PAYLOAD","LAUNCH_DATE":"2022-02-25","NORAD_CAT_ID":"51806","MEAN_ANOMALY":"102.0197"},{"APOAPSIS":"541.456","CENTER_NAME":"EARTH","MEAN_MOTION":"15.08806774","PERIOD":"95.440","NORAD_CAT_ID":"51807","LAUNCH_DATE":"2022-02-25","OBJECT_TYPE":"PAYLOAD","MEAN_ANOMALY":"83.1671","OBJECT_ID":"2022-017AR","SEMIMAJOR_AXIS":"6917.982","TLE_LINE2":"2 51807  53.2153 288.3452 0002326  28.7839  83.1671 15.08806774  1300","TIME_SYSTEM":"UTC","EPOCH":"2022-09-14T22:00:00.999936","FILE":"3574287","MEAN_ELEMENT_THEORY":"SGP4","RCS_SIZE":"LARGE","DECAY_DATE":null,"REF_FRAME":"TEME","COUNTRY_CODE":"US","EPHEMERIS_TYPE":"0","CLASSIFICATION_TYPE":"U","ELEMENT_SET_NO":"999","OBJECT_NAME":"STARLINK-3606","ARG_OF_PERICENTER":"28.7839","RA_OF_ASC_NODE":"288.3452","REV_AT_EPOCH":"130","MEAN_MOTION_DOT":"0.00041508","BSTAR":"0.00261310000000","GP_ID":"212614691","PERIAPSIS":"538.238","MEAN_MOTION_DDOT":"0.0000000000000","INCLINATION":"53.2153","TLE_LINE1":"1 51807U 22017AR  22257.91667824  .00041508  00000-0  26131-2 0  9997","SITE":"AFWTR","ECCENTRICITY":"0.00023260"},{"MEAN_MOTION_DDOT":"0.0000000000000","GP_ID":"212613451","PERIAPSIS":"538.689","MEAN_MOTION_DOT":"0.00039994","BSTAR":"0.00251840000000","ECCENTRICITY":"0.00016310","TLE_LINE1":"1 51808U 22017AS  22257.91667824  .00039994  00000-0  25184-2 0  9991","SITE":"AFWTR","INCLINATION":"53.2136","CLASSIFICATION_TYPE":"U","EPHEMERIS_TYPE":"0","COUNTRY_CODE":"US","RCS_SIZE":"LARGE","REF_FRAME":"TEME","DECAY_DATE":null,"EPOCH":"2022-09-14T22:00:00.999936","MEAN_ELEMENT_THEORY":"SGP4","FILE":"3574287","ARG_OF_PERICENTER":"52.1033","RA_OF_ASC_NODE":"288.3441","REV_AT_EPOCH":"130","OBJECT_NAME":"STARLINK-3609","ELEMENT_SET_NO":"999","TLE_LINE2":"2 51808  53.2136 288.3441 0001631  52.1033 139.8515 15.08816444  1306","TIME_SYSTEM":"UTC","OBJECT_ID":"2022-017AS","SEMIMAJOR_AXIS":"6917.952","MEAN_MOTION":"15.08816444","PERIOD":"95.439","APOAPSIS":"540.946","CENTER_NAME":"EARTH","MEAN_ANOMALY":"139.8515","OBJECT_TYPE":"PAYLOAD","NORAD_CAT_ID":"51808","LAUNCH_DATE":"2022-02-25"},{"TLE_LINE1":"1 51809U 22017AT  22257.91667824  .00039368  00000-0  24800-2 0  9991","SITE":"AFWTR","ECCENTRICITY":"0.00015770","INCLINATION":"53.2146","MEAN_MOTION_DDOT":"0.0000000000000","MEAN_MOTION_DOT":"0.00039368","BSTAR":"0.00248000000000","GP_ID":"212613199","PERIAPSIS":"538.751","RA_OF_ASC_NODE":"288.3412","ARG_OF_PERICENTER":"45.1938","REV_AT_EPOCH":"130","ELEMENT_SET_NO":"999","OBJECT_NAME":"STARLINK-3607","EPHEMERIS_TYPE":"0","COUNTRY_CODE":"US","CLASSIFICATION_TYPE":"U","EPOCH":"2022-09-14T22:00:00.999936","MEAN_ELEMENT_THEORY":"SGP4","FILE":"3574287","RCS_SIZE":"LARGE","REF_FRAME":"TEME","DECAY_DATE":null,"TLE_LINE2":"2 51809  53.2146 288.3412 0001577  45.1938  86.7928 15.08808367  1304","TIME_SYSTEM":"UTC","SEMIMAJOR_AXIS":"6917.977","OBJECT_ID":"2022-017AT","MEAN_ANOMALY":"86.7928","NORAD_CAT_ID":"51809","LAUNCH_DATE":"2022-02-25","OBJECT_TYPE":"PAYLOAD","APOAPSIS":"540.933","CENTER_NAME":"EARTH","MEAN_MOTION":"15.08808367","PERIOD":"95.440"},{"SEMIMAJOR_AXIS":"6917.960","OBJECT_ID":"2022-017AU","TLE_LINE2":"2 51810  53.2167 278.3272 0001280  66.9417 354.8173 15.08814097 32207","TIME_SYSTEM":"UTC","OBJECT_TYPE":"PAYLOAD","NORAD_CAT_ID":"51810","LAUNCH_DATE":"2022-02-25","MEAN_ANOMALY":"354.8173","MEAN_MOTION":"15.08814097","PERIOD":"95.439","CENTER_NAME":"EARTH","APOAPSIS":"540.710","INCLINATION":"53.2167","ECCENTRICITY":"0.00012800","TLE_LINE1":"1 51810U 22017AU  22257.91667824  .00049398  00000-0  31024-2 0  9993","SITE":"AFWTR","PERIAPSIS":"538.939","GP_ID":"212585579","MEAN_MOTION_DOT":"0.00049398","BSTAR":"0.00310240000000","MEAN_MOTION_DDOT":"0.0000000000000","OBJECT_NAME":"STARLINK-3613","ELEMENT_SET_NO":"999","RA_OF_ASC_NODE":"278.3272","ARG_OF_PERICENTER":"66.9417","REV_AT_EPOCH":"3220","RCS_SIZE":"LARGE","DECAY_DATE":null,"REF_FRAME":"TEME","EPOCH":"2022-09-14T22:00:00.999936","FILE":"3574059","MEAN_ELEMENT_THEORY":"SGP4","CLASSIFICATION_TYPE":"U","COUNTRY_CODE":"US","EPHEMERIS_TYPE":"0"}];
